[{"OBJECT_NAME":"SL-8 R/B","OBJECT_ID":"1991-006B","EPOCH":"2026-04-08T04:29:31.029216","MEAN_MOTION":13.77499547,"ECCENTRICITY":0.0021263,"INCLINATION":82.9427,"RA_OF_ASC_NODE":148.1135,"ARG_OF_PERICENTER":315.1483,"MEAN_ANOMALY":104.8612,"EPHEMERIS_TYPE":0,"CLASSIFICATION_TYPE":"U","NORAD_CAT_ID":21088,"ELEMENT_SET_NO":999,"REV_AT_EPOCH":76813,"BSTAR":8.808062e-5,"MEAN_MOTION_DOT":1.03e-6,"MEAN_MOTION_DDOT":0},{"OBJECT_NAME":"OKEAN-3","OBJECT_ID":"1991-039A","EPOCH":"2026-04-08T01:38:20.019264","MEAN_MOTION":15.04990952,"ECCENTRICITY":0.00132368,"INCLINATION":82.5157,"RA_OF_ASC_NODE":308.3738,"ARG_OF_PERICENTER":227.8175,"MEAN_ANOMALY":132.1929,"EPHEMERIS_TYPE":0,"CLASSIFICATION_TYPE":"U","NORAD_CAT_ID":21397,"ELEMENT_SET_NO":999,"REV_AT_EPOCH":86945,"BSTAR":0.00018032659,"MEAN_MOTION_DOT":2.589e-5,"MEAN_MOTION_DDOT":0},{"OBJECT_NAME":"COSMOS 2151","OBJECT_ID":"1991-042A","EPOCH":"2026-04-08T07:09:50.624640","MEAN_MOTION":15.00247896,"ECCENTRICITY":0.00113549,"INCLINATION":82.4968,"RA_OF_ASC_NODE":55.1075,"ARG_OF_PERICENTER":326.5907,"MEAN_ANOMALY":33.46,"EPHEMERIS_TYPE":0,"CLASSIFICATION_TYPE":"U","NORAD_CAT_ID":21422,"ELEMENT_SET_NO":999,"REV_AT_EPOCH":86763,"BSTAR":0.00017766737,"MEAN_MOTION_DOT":2.252e-5,"MEAN_MOTION_DDOT":0},{"OBJECT_NAME":"SL-14 R/B","OBJECT_ID":"1991-042B","EPOCH":"2026-04-08T06:23:22.905312","MEAN_MOTION":14.81861179,"ECCENTRICITY":0.00180393,"INCLINATION":82.4961,"RA_OF_ASC_NODE":192.4557,"ARG_OF_PERICENTER":140.3181,"MEAN_ANOMALY":219.9357,"EPHEMERIS_TYPE":0,"CLASSIFICATION_TYPE":"U","NORAD_CAT_ID":21423,"ELEMENT_SET_NO":999,"REV_AT_EPOCH":85745,"BSTAR":5.1896267e-5,"MEAN_MOTION_DOT":4.35e-6,"MEAN_MOTION_DDOT":0},{"OBJECT_NAME":"ERS-1","OBJECT_ID":"1991-050A","EPOCH":"2026-04-08T07:24:39.208896","MEAN_MOTION":14.39473695,"ECCENTRICITY":0.00330474,"INCLINATION":98.7855,"RA_OF_ASC_NODE":117.2852,"ARG_OF_PERICENTER":113.7539,"MEAN_ANOMALY":246.712,"EPHEMERIS_TYPE":0,"CLASSIFICATION_TYPE":"U","NORAD_CAT_ID":21574,"ELEMENT_SET_NO":999,"REV_AT_EPOCH":81999,"BSTAR":0.00011352684,"MEAN_MOTION_DOT":3.1e-6,"MEAN_MOTION_DDOT":0},{"OBJECT_NAME":"ARIANE 40 R/B","OBJECT_ID":"1991-050F","EPOCH":"2026-04-08T03:36:51.925536","MEAN_MOTION":14.4291675,"ECCENTRICITY":0.00028877,"INCLINATION":98.1952,"RA_OF_ASC_NODE":149.2724,"ARG_OF_PERICENTER":10.3943,"MEAN_ANOMALY":349.7307,"EPHEMERIS_TYPE":0,"CLASSIFICATION_TYPE":"U","NORAD_CAT_ID":21610,"ELEMENT_SET_NO":999,"REV_AT_EPOCH":82324,"BSTAR":0.00010156371,"MEAN_MOTION_DOT":2.98e-6,"MEAN_MOTION_DDOT":0},{"OBJECT_NAME":"INTERCOSMOS 25","OBJECT_ID":"1991-086A","EPOCH":"2026-04-07T23:03:25.941024","MEAN_MOTION":12.12103821,"ECCENTRICITY":0.1486144,"INCLINATION":82.6,"RA_OF_ASC_NODE":292.3091,"ARG_OF_PERICENTER":53.8604,"MEAN_ANOMALY":319.101,"EPHEMERIS_TYPE":0,"CLASSIFICATION_TYPE":"U","NORAD_CAT_ID":21819,"ELEMENT_SET_NO":999,"REV_AT_EPOCH":50023,"BSTAR":0.00020885,"MEAN_MOTION_DOT":1.096e-5,"MEAN_MOTION_DDOT":0},{"OBJECT_NAME":"SL-8 R/B","OBJECT_ID":"1992-008B","EPOCH":"2026-04-08T04:40:42.654432","MEAN_MOTION":13.75970064,"ECCENTRICITY":0.00356249,"INCLINATION":82.9249,"RA_OF_ASC_NODE":245.825,"ARG_OF_PERICENTER":53.7551,"MEAN_ANOMALY":119.9337,"EPHEMERIS_TYPE":0,"CLASSIFICATION_TYPE":"U","NORAD_CAT_ID":21876,"ELEMENT_SET_NO":999,"REV_AT_EPOCH":71347,"BSTAR":3.0621807e-5,"MEAN_MOTION_DOT":4.5e-7,"MEAN_MOTION_DDOT":0},{"OBJECT_NAME":"SL-8 R/B","OBJECT_ID":"1992-020B","EPOCH":"2026-04-08T05:25:32.519712","MEAN_MOTION":13.75550611,"ECCENTRICITY":0.00282594,"INCLINATION":82.9283,"RA_OF_ASC_NODE":131.8284,"ARG_OF_PERICENTER":212.8248,"MEAN_ANOMALY":216.9037,"EPHEMERIS_TYPE":0,"CLASSIFICATION_TYPE":"U","NORAD_CAT_ID":21938,"ELEMENT_SET_NO":999,"REV_AT_EPOCH":70519,"BSTAR":-1.918435e-5,"MEAN_MOTION_DOT":-3.0e-8,"MEAN_MOTION_DDOT":0},{"OBJECT_NAME":"USA 81","OBJECT_ID":"1992-023A","EPOCH":"2026-04-08T01:39:04.795200","MEAN_MOTION":14.32378156,"ECCENTRICITY":0.00013849,"INCLINATION":85.0037,"RA_OF_ASC_NODE":114.4837,"ARG_OF_PERICENTER":73.271,"MEAN_ANOMALY":286.8635,"EPHEMERIS_TYPE":0,"CLASSIFICATION_TYPE":"U","NORAD_CAT_ID":21949,"ELEMENT_SET_NO":999,"REV_AT_EPOCH":9899,"BSTAR":5.7244034e-5,"MEAN_MOTION_DOT":1.75e-6,"MEAN_MOTION_DDOT":0},{"OBJECT_NAME":"COSMOS 2219","OBJECT_ID":"1992-076A","EPOCH":"2026-04-08T07:14:29.949792","MEAN_MOTION":14.14088076,"ECCENTRICITY":0.00175388,"INCLINATION":71.0598,"RA_OF_ASC_NODE":316.1696,"ARG_OF_PERICENTER":161.5299,"MEAN_ANOMALY":198.6464,"EPHEMERIS_TYPE":0,"CLASSIFICATION_TYPE":"U","NORAD_CAT_ID":22219,"ELEMENT_SET_NO":999,"REV_AT_EPOCH":72256,"BSTAR":-2.696267e-5,"MEAN_MOTION_DOT":-9.8e-7,"MEAN_MOTION_DDOT":0},{"OBJECT_NAME":"SL-16 R/B","OBJECT_ID":"1992-076B","EPOCH":"2026-04-08T05:00:08.873856","MEAN_MOTION":14.16862808,"ECCENTRICITY":0.00111185,"INCLINATION":70.9979,"RA_OF_ASC_NODE":126.1958,"ARG_OF_PERICENTER":42.5153,"MEAN_ANOMALY":24.8557,"EPHEMERIS_TYPE":0,"CLASSIFICATION_TYPE":"U","NORAD_CAT_ID":22220,"ELEMENT_SET_NO":999,"REV_AT_EPOCH":72601,"BSTAR":6.6301926e-5,"MEAN_MOTION_DOT":8.5e-7,"MEAN_MOTION_DDOT":0},{"OBJECT_NAME":"COSMOS 2221","OBJECT_ID":"1992-080A","EPOCH":"2026-04-08T03:06:05.135904","MEAN_MOTION":14.9633935,"ECCENTRICITY":0.00156735,"INCLINATION":82.5021,"RA_OF_ASC_NODE":250.8717,"ARG_OF_PERICENTER":94.1449,"MEAN_ANOMALY":266.1565,"EPHEMERIS_TYPE":0,"CLASSIFICATION_TYPE":"U","NORAD_CAT_ID":22236,"ELEMENT_SET_NO":999,"REV_AT_EPOCH":78519,"BSTAR":0.0001595188,"MEAN_MOTION_DOT":1.834e-5,"MEAN_MOTION_DDOT":0},{"OBJECT_NAME":"SL-16 R/B","OBJECT_ID":"1992-093B","EPOCH":"2026-04-08T06:42:32.821056","MEAN_MOTION":14.15455421,"ECCENTRICITY":0.0006632,"INCLINATION":71.0211,"RA_OF_ASC_NODE":302.1506,"ARG_OF_PERICENTER":264.93,"MEAN_ANOMALY":95.1066,"EPHEMERIS_TYPE":0,"CLASSIFICATION_TYPE":"U","NORAD_CAT_ID":22285,"ELEMENT_SET_NO":999,"REV_AT_EPOCH":71734,"BSTAR":-8.2629983e-5,"MEAN_MOTION_DOT":-2.09e-6,"MEAN_MOTION_DDOT":0},{"OBJECT_NAME":"COSMOS 2228","OBJECT_ID":"1992-094A","EPOCH":"2026-04-08T06:13:39.936000","MEAN_MOTION":14.97358969,"ECCENTRICITY":0.00175696,"INCLINATION":82.5199,"RA_OF_ASC_NODE":209,"ARG_OF_PERICENTER":198.098,"MEAN_ANOMALY":161.962,"EPHEMERIS_TYPE":0,"CLASSIFICATION_TYPE":"U","NORAD_CAT_ID":22286,"ELEMENT_SET_NO":999,"REV_AT_EPOCH":78048,"BSTAR":0.0002041361,"MEAN_MOTION_DOT":2.403e-5,"MEAN_MOTION_DDOT":0},{"OBJECT_NAME":"SL-16 R/B","OBJECT_ID":"1993-016B","EPOCH":"2026-04-08T04:21:30.896640","MEAN_MOTION":14.15311286,"ECCENTRICITY":0.00124816,"INCLINATION":71.007,"RA_OF_ASC_NODE":153.2436,"ARG_OF_PERICENTER":276.7203,"MEAN_ANOMALY":83.2499,"EPHEMERIS_TYPE":0,"CLASSIFICATION_TYPE":"U","NORAD_CAT_ID":22566,"ELEMENT_SET_NO":999,"REV_AT_EPOCH":70634,"BSTAR":0.00017012562,"MEAN_MOTION_DOT":2.84e-6,"MEAN_MOTION_DDOT":0},{"OBJECT_NAME":"COSMOS 2242","OBJECT_ID":"1993-024A","EPOCH":"2026-04-08T07:42:51.821568","MEAN_MOTION":14.96692537,"ECCENTRICITY":0.00158117,"INCLINATION":82.5182,"RA_OF_ASC_NODE":238.366,"ARG_OF_PERICENTER":201.1168,"MEAN_ANOMALY":158.9403,"EPHEMERIS_TYPE":0,"CLASSIFICATION_TYPE":"U","NORAD_CAT_ID":22626,"ELEMENT_SET_NO":999,"REV_AT_EPOCH":78482,"BSTAR":0.00019912173,"MEAN_MOTION_DOT":2.303e-5,"MEAN_MOTION_DDOT":0}]
