SL-8 R/B                
1 21088U 91006B   26098.18716469  .00000103  00000+0  88081-4 0  9994
2 21088  82.9427 148.1135 0021263 315.1483 104.8612 13.77499547768138
OKEAN-3                 
1 21397U 91039A   26098.06828726  .00002589  00000+0  18033-3 0  9999
2 21397  82.5157 308.3738 0013236 227.8175 132.1929 15.04990952869454
COSMOS 2151             
1 21422U 91042A   26098.29850260  .00002252  00000+0  17767-3 0  9995
2 21422  82.4968  55.1075 0011354 326.5907  33.4600 15.00247896867637
SL-14 R/B               
1 21423U 91042B   26098.26623733  .00000435  00000+0  51896-4 0  9999
2 21423  82.4961 192.4557 0018039 140.3181 219.9357 14.81861179857457
ERS-1                   
1 21574U 91050A   26098.30878714  .00000310  00000+0  11353-3 0  9996
2 21574  98.7855 117.2852 0033047 113.7539 246.7120 14.39473695819994
ARIANE 40 R/B           
1 21610U 91050F   26098.15060099  .00000298  00000+0  10156-3 0  9994
2 21610  98.1952 149.2724 0002887  10.3943 349.7307 14.42916750823241
INTERCOSMOS 25          
1 21819U 91086A   26097.96071691  .00001096  00000+0  20885-3 0  9999
2 21819  82.6000 292.3091 1486144  53.8604 319.1010 12.12103821500235
SL-8 R/B                
1 21876U 92008B   26098.19493813  .00000045  00000+0  30622-4 0  9991
2 21876  82.9249 245.8250 0035624  53.7551 119.9337 13.75970064713479
SL-8 R/B                
1 21938U 92020B   26098.22607083 -.00000003  00000+0 -19184-4 0  9990
2 21938  82.9283 131.8284 0028259 212.8248 216.9037 13.75550611705191
USA 81                  
1 21949U 92023A   26098.06880550  .00000175  00000+0  57244-4 0  9996
2 21949  85.0037 114.4837 0001384  73.2710 286.8635 14.32378156 98997
COSMOS 2219             
1 22219U 92076A   26098.30173553 -.00000098  00000+0 -26963-4 0  9990
2 22219  71.0598 316.1696 0017538 161.5299 198.6464 14.14088076722566
SL-16 R/B               
1 22220U 92076B   26098.20843604  .00000085  00000+0  66302-4 0  9997
2 22220  70.9979 126.1958 0011118  42.5153  24.8557 14.16862808726016
COSMOS 2221             
1 22236U 92080A   26098.12922611  .00001834  00000+0  15952-3 0  9993
2 22236  82.5021 250.8717 0015673  94.1449 266.1565 14.96339350785192
SL-16 R/B               
1 22285U 92093B   26098.27954654 -.00000209  00000+0 -82630-4 0  9994
2 22285  71.0211 302.1506 0006632 264.9300  95.1066 14.15455421717342
COSMOS 2228             
1 22286U 92094A   26098.25949000  .00002403  00000+0  20414-3 0  9990
2 22286  82.5199 209.0000 0017569 198.0980 161.9620 14.97358969780483
SL-16 R/B               
1 22566U 93016B   26098.18160760  .00000284  00000+0  17013-3 0  9992
2 22566  71.0070 153.2436 0012481 276.7203  83.2499 14.15311286706342
COSMOS 2242             
1 22626U 93024A   26098.32143312  .00002303  00000+0  19912-3 0  9992
2 22626  82.5182 238.3660 0015811 201.1168 158.9403 14.96692537784820
